NORAD_CAT_ID,OBJECT_NAME,OBJECT_TYPE,EPOCH,MEAN_MOTION,ECCENTRICITY,INCLINATION,RA_OF_ASC_NODE,ARG_OF_PERICENTER,MEAN_ANOMALY,BSTAR,MEAN_MOTION_DOT,MEAN_MOTION_DDOT,TLE_LINE0,TLE_LINE1,TLE_LINE2,SEMIMAJOR_AXIS,PERIOD,APOGEE,PERIGEE,DECAYED
52106.0,STARLINK-3670,PAYLOAD,2022-05-30 22:00:00,15.088189000000002,0.0001588,53.2148,158.6557,67.845,217.9426,0.0026792,0.00042585,0.0,0 STARLINK-3670,1 52106U 22029U   22150.91667824  .00042585  00000-0  26792-2 0  9994,2 52106  53.2148 158.6557 0001588  67.8450 217.9426 15.08818900  1303,6917.945,95.439,540.908,538.711,0.0
52106.0,STARLINK-3670,PAYLOAD,2022-05-31 06:00:02,15.08851238,0.0001703,53.2149,157.1609,63.369,234.0717,-0.0013308,-0.00021412,0.0,0 STARLINK-3670,1 52106U 22029U   22151.25002315 -.00021412  00000-0 -13308-2 0  9997,2 52106  53.2149 157.1609 0001703  63.3690 234.0717 15.08851238  1306,6917.846,95.437,540.889,538.533,0.0
52106.0,STARLINK-3670,PAYLOAD,2022-05-31 14:00:01,15.08853844,0.0001702,53.2145,155.6645,60.2238,248.7468,-0.0012435,-0.00020031,0.0,0 STARLINK-3670,1 52106U 22029U   22151.58334491 -.00020031  00000-0 -12435-2 0  9992,2 52106  53.2145 155.6645 0001702  60.2238 248.7468 15.08853844 12591,6917.8380000000025,95.437,540.88,538.526,0.0
52106.0,STARLINK-3670,PAYLOAD,2022-05-31 22:00:00,15.08823279,0.0001648,53.2146,154.1665,68.3501,252.2312,0.0027044,0.00042996,0.0,0 STARLINK-3670,1 52106U 22029U   22151.91667824  .00042996  00000-0  27044-2 0  9992,2 52106  53.2146 154.1665 0001648  68.3501 252.2312 15.08823279  1303,6917.931,95.439,540.937,538.656,0.0
52106.0,STARLINK-3670,PAYLOAD,2022-06-01 06:00:00,15.08853834,0.0001776999999999,53.2148,152.6717,63.1122,269.0643,-0.0012636,-0.0002035,0.0,0 STARLINK-3670,1 52106U 22029U   22152.25001157 -.00020350  00000-0 -12636-2 0  9994,2 52106  53.2148 152.6717 0001777  63.1122 269.0643 15.08853834 12698,6917.8380000000025,95.437,540.932,538.474,0.0
52106.0,STARLINK-3670,PAYLOAD,2022-06-01 20:00:01,15.08828797,0.0001681,53.215,150.0514,65.9908,196.501,0.0023386,0.00037116,0.0,0 STARLINK-3670,1 52106U 22029U   22152.83334491  .00037116  00000-0  23386-2 0  9998,2 52106  53.2150 150.0514 0001681  65.9908 196.5010 15.08828797 12786,6917.915,95.438,540.943,538.617,0.0
52106.0,STARLINK-3670,PAYLOAD,2022-06-02 17:05:54,15.08834755,0.0001748,53.2168,146.1053,64.063,296.0542,-5.7009e-05,-1.195e-05,0.0,0 STARLINK-3670,1 52106U 22029U   22153.71243599 -.00001195  00000-0 -57009-4 0  9995,2 52106  53.2168 146.1053 0001748  64.0630 296.0542 15.08834755 12928,6917.896,95.438,540.971,538.552,0.0
52106.0,STARLINK-3670,PAYLOAD,2022-06-03 10:35:08,15.08839025,0.0001710999999999,53.2171,142.8344,62.5567,297.5599,-4.7953e-05,-1.051e-05,0.0,0 STARLINK-3670,1 52106U 22029U   22154.44107304 -.00001051  00000-0 -47953-4 0  9997,2 52106  53.2171 142.8344 0001711  62.5567 297.5599 15.08839025 13036,6917.8830000000025,95.438,540.932,538.565,0.0
52106.0,STARLINK-3670,PAYLOAD,2022-06-04 10:25:55,15.08841138,0.0001767,53.217,138.3739,62.793,297.3242,-2.0969e-05,-6.22e-06,0.0,0 STARLINK-3670,1 52106U 22029U   22155.43467048 -.00000622  00000-0 -20969-4 0  9992,2 52106  53.2170 138.3739 0001767  62.7930 297.3242 15.08841138 13187,6917.877,95.437,540.964,538.52,0.0
52106.0,STARLINK-3670,PAYLOAD,2022-06-05 20:00:01,15.08809147,0.0001696999999999,53.2169,132.0953,67.1397,334.4934,0.0023156999999999,0.00036728,0.0,0 STARLINK-3670,1 52106U 22029U   22156.83334491  .00036728  00000-0  23157-2 0  9996,2 52106  53.2169 132.0953 0001697  67.1397 334.4934 15.08809147 13390,6917.975,95.44,541.014,538.6659999999998,0.0
52106.0,STARLINK-3670,PAYLOAD,2022-06-05 22:00:00,15.088219,0.0001732,53.2171,131.7213,68.1072,66.4147,0.0012965,0.00020396,0.0,0 STARLINK-3670,1 52106U 22029U   22156.91667824  .00020396  00000-0  12965-2 0  9993,2 52106  53.2171 131.7213 0001732  68.1072  66.4147 15.08821900  1306,6917.936,95.439,540.999,538.6030000000002,0.0
52106.0,STARLINK-3670,PAYLOAD,2022-06-06 14:00:01,15.08846381,0.0001776999999999,53.2165,128.7296,63.3827,94.2979,-0.002073,-0.00033135,0.0,0 STARLINK-3670,1 52106U 22029U   22157.58334491 -.00033135  00000-0 -20730-2 0  9994,2 52106  53.2165 128.7296 0001777  63.3827  94.2979 15.08846381 13507,6917.861,95.437,540.955,538.497,0.0
52106.0,STARLINK-3670,PAYLOAD,2022-06-06 22:00:00,15.08833954,0.0001754999999999,53.2168,127.2326,70.2029,99.0658,0.00087007,0.00013584,0.0,0 STARLINK-3670,1 52106U 22029U   22157.91667824  .00013584  00000-0  87007-3 0  9995,2 52106  53.2168 127.2326 0001755  70.2029  99.0658 15.08833954  1309,6917.899,95.438,540.9780000000002,538.55,0.0
52106.0,STARLINK-3670,PAYLOAD,2022-06-07 06:00:00,15.08830473,0.0001873,53.2165,125.7381,63.1446,117.7216,0.00057868,8.931e-05,0.0,0 STARLINK-3670,1 52106U 22029U   22158.25001157  .00008931  00000-0  57868-3 0  9996,2 52106  53.2165 125.7381 0001873  63.1446 117.7216 15.08830473 13602,6917.91,95.438,541.07,538.479,0.0
52106.0,STARLINK-3670,PAYLOAD,2022-06-07 14:00:01,15.08855786,0.0001795,53.216,124.2406,65.7494,126.7026,-0.0019248,-0.00030804,0.0,0 STARLINK-3670,1 52106U 22029U   22158.58334491 -.00030804  00000-0 -19248-2 0  9997,2 52106  53.2160 124.2406 0001795  65.7494 126.7026 15.08855786  1300,6917.831999999999,95.437,540.939,538.455,0.0
52106.0,STARLINK-3670,PAYLOAD,2022-06-07 22:00:00,15.08850277,0.0001802,53.2162,122.7437,72.0555,131.9977,0.00068831,0.00010686,0.0,0 STARLINK-3670,1 52106U 22029U   22158.91667824  .00010686  00000-0  68831-3 0  9990,2 52106  53.2162 122.7437 0001802  72.0555 131.9977 15.08850277  1300,6917.849,95.437,540.961,538.467,0.0
52106.0,STARLINK-3670,PAYLOAD,2022-06-08 06:00:02,15.08840152,0.0001902,53.216,121.2489,64.2143,151.5161,0.0012507,0.00019673,0.0,0 STARLINK-3670,1 52106U 22029U   22159.25002315  .00019673  00000-0  12507-2 0  9999,2 52106  53.2160 121.2489 0001902  64.2143 151.5161 15.08840152 13752,6917.88,95.438,541.061,538.429,0.0
52106.0,STARLINK-3670,PAYLOAD,2022-06-08 14:00:01,15.088741699999998,0.0001759,53.2156,119.7512,66.2246,161.0448,-0.0045973,-0.00072784,0.0,0 STARLINK-3670,1 52106U 22029U   22159.58334491 -.00072784  00000-0 -45973-2 0  9995,2 52106  53.2156 119.7512 0001759  66.2246 161.0448 15.08874170  1301,6917.776,95.435,540.8580000000002,538.424,0.0
52106.0,STARLINK-3670,PAYLOAD,2022-06-08 22:00:01,15.08835682,0.0001751999999999,53.2158,118.2543,71.148,167.7842,0.00032305,4.856e-05,0.0,0 STARLINK-3670,1 52106U 22029U   22159.91668981  .00004856  00000-0  32305-3 0  9995,2 52106  53.2158 118.2543 0001752  71.1480 167.7842 15.08835682 13858,6917.894,95.438,540.971,538.547,0.0
52106.0,STARLINK-3670,PAYLOAD,2022-06-09 14:00:01,15.0885123,0.0001763,53.2157,115.2617,65.7279,196.3198,-0.0015399,-0.0002472,0.0,0 STARLINK-3670,1 52106U 22029U   22160.58334491 -.00024720  00000-0 -15399-2 0  9993,2 52106  53.2157 115.2617 0001763  65.7279 196.3198 15.08851230  1309,6917.846,95.437,540.931,538.491,0.0
52106.0,STARLINK-3670,PAYLOAD,2022-06-09 22:00:00,15.08856466,0.0001751999999999,53.2159,113.7649,70.1432,203.4986,-0.0028737,-0.00045754,0.0,0 STARLINK-3670,1 52106U 22029U   22160.91667824 -.00045754  00000-0 -28737-2 0  9999,2 52106  53.2159 113.7649 0001752  70.1432 203.4986 15.08856466  1309,6917.83,95.437,540.9069999999998,538.4830000000002,0.0
52106.0,STARLINK-3670,PAYLOAD,2022-06-10 06:00:02,15.08802201,0.0001853,53.216,112.2698,61.7364,223.5684,0.0021962,0.00034802,0.0,0 STARLINK-3670,1 52106U 22029U   22161.25002315  .00034802  00000-0  21962-2 0  9998,2 52106  53.2160 112.2698 0001853  61.7364 223.5684 15.08802201 14053,6917.996,95.44,541.143,538.5790000000002,0.0
52106.0,STARLINK-3670,PAYLOAD,2022-06-10 14:00:01,15.08834912,0.0001740999999999,53.2162,110.7719,64.8943,231.9163,-0.001015,-0.00016403,0.0,0 STARLINK-3670,1 52106U 22029U   22161.58334491 -.00016403  00000-0 -10150-2 0  9993,2 52106  53.2162 110.7719 0001741  64.8943 231.9163 15.08834912  1308,6917.896,95.438,540.965,538.557,0.0
52106.0,STARLINK-3670,PAYLOAD,2022-06-10 22:00:00,15.08810552,0.0001756,53.217,109.2807,66.4425,241.9524,0.0004309,6.571e-05,0.0,0 STARLINK-3670,1 52106U 22029U   22161.91667824  .00006571  00000-0  43090-3 0  9992,2 52106  53.2170 109.2807 0001756  66.4425 241.9524 15.08810552 14150,6917.97,95.439,541.05,538.621,0.0
52106.0,STARLINK-3670,PAYLOAD,2022-06-11 06:00:00,15.08821277,0.0001897,53.2166,107.7806,62.2062,257.7839,0.0024611,0.00039078,0.0,0 STARLINK-3670,1 52106U 22029U   22162.25001157  .00039078  00000-0  24611-2 0  9996,2 52106  53.2166 107.7806 0001897  62.2062 257.7839 15.08821277 14200,6917.938,95.439,541.115,538.49,0.0
52106.0,STARLINK-3670,PAYLOAD,2022-06-11 22:00:00,15.08839056,0.0001712,53.2173,104.7862,68.5947,274.5721,-0.00043492,-7.203e-05,0.0,0 STARLINK-3670,1 52106U 22029U   22162.91667824 -.00007203  00000-0 -43492-3 0  9994,2 52106  53.2173 104.7862 0001712  68.5947 274.5721 15.08839056 14306,6917.8830000000025,95.438,540.933,538.564,0.0
52106.0,STARLINK-3670,PAYLOAD,2022-06-12 14:00:01,15.0883882,0.0001686,53.2175,101.7935,67.0868,299.2587,-1.7613e-05,-5.68e-06,0.0,0 STARLINK-3670,1 52106U 22029U   22163.58334491 -.00000568  00000-0 -17613-4 0  9993,2 52106  53.2175 101.7935 0001686  67.0868 299.2587 15.08838820  1300,6917.884,95.438,540.915,538.5830000000002,0.0
52106.0,STARLINK-3670,PAYLOAD,2022-06-12 22:00:00,15.08864132,0.000165,53.2178,100.2974,69.0964,308.841,-0.0032609,-0.00051846,0.0,0 STARLINK-3670,1 52106U 22029U   22163.91667824 -.00051846  00000-0 -32609-2 0  9994,2 52106  53.2178 100.2974 0001650  69.0964 308.8410 15.08864132  1307,6917.807,95.436,540.813,538.53,0.0
52106.0,STARLINK-3670,PAYLOAD,2022-06-13 06:00:02,15.08808726,0.0001703,53.2178,98.8025,61.629,327.9804,0.0030629,0.00048754,0.0,0 STARLINK-3670,1 52106U 22029U   22164.25002315  .00048754  00000-0  30629-2 0  9992,2 52106  53.2178  98.8025 0001703  61.6290 327.9804 15.08808726 14518,6917.976,95.44,541.019,538.663,0.0
